AFOTEC-1 (FALCON ODE)   
1 44225U 19026A   20208.13767765  .00000713  00000-0  39672-4 0  9991
2 44225  40.0187 134.0888 0007078 316.5447  43.4795 15.20862518 68186
SPARC-1                 
1 44226U 19026B   20208.49792441  .00000996  00000-0  50153-4 0  9990
2 44226  40.0186 127.0444 0011220 323.1763  36.8267 15.22299267 68294
ELECTRON KICK STAGE R/B 
1 44227U 19026C   20208.50750941  .00000889  00000-0  46069-4 0  9994
2 44227  40.0240 128.2013 0009559 325.6718  34.3465 15.21949668 68288
HARBINGER (ICEYE-X3)    
1 44229U 19026E   20208.13036388  .00000641  00000-0  36260-4 0  9995
2 44229  40.0186 133.1298 0008043 311.9571  48.0544 15.21088090 68194
